COSMOS 2242             
1 22626U 93024A   26063.08631526  .00002348  00000+0  20393-3 0  9990
2 22626  82.5154 272.0778 0015557 328.9179  31.1121 14.96522155779552
SL-16 R/B               
1 22803U 93059B   26063.32447448  .00000001  00000+0  24136-4 0  9994
2 22803  70.9921  22.4393 0018779 224.1741 135.7884 14.17232330678778
ARIANE 40 R/B           
1 22830U 93061H   26063.18195960  .00000312  00000+0  13004-3 0  9996
2 22830  98.4928 132.1781 0009655 303.2942  56.7316 14.32857838693317
COSMOS 2278             
1 23087U 94023A   26063.50561038  .00000308  00000+0  18561-3 0  9997
2 23087  71.0543 185.9417 0007692  23.7678 336.3799 14.14376329644075
SL-16 R/B               
1 23088U 94023B   26063.48371222 -.00000117  00000+0 -35787-4 0  9999
2 23088  70.9987  81.8212 0005641 290.7503  69.3015 14.15013380645350
SL-16 R/B               
1 23343U 94074B   26063.52970501  .00000689  00000+0  99054-4 0  9998
2 23343  97.7116  94.5563 0005440 230.3684 254.1669 14.79401252686489
SL-16 R/B               
1 23405U 94077B   26063.25536438 -.00000230  00000+0 -93246-4 0  9998
2 23405  70.9851   3.9204 0003394 219.9110 140.1763 14.15562115615461
ARIANE 40+ R/B          
1 23561U 95021B   26063.18078909  .00000433  00000+0  15201-3 0  9994
2 23561  98.4508 134.7378 0007401 151.3190 234.2081 14.39768032618455
SL-16 R/B               
1 23705U 95058B   26063.47409966  .00000039  00000+0  44263-4 0  9990
2 23705  71.0211 191.2039 0010999 135.0151 225.1865 14.15492887567118
SL-16 R/B               
1 24298U 96051B   26063.50030014  .00000105  00000+0  83516-4 0  9998
2 24298  70.7597 186.2217 0015547 155.7703 204.4151 14.12414119520911
ORBVIEW 2 (SEASTAR)     
1 24883U 97037A   26063.39933558  .00000508  00000+0  19297-3 0  9996
2 24883  98.8556 227.5711 0003172  82.5160 277.6384 14.35490740507712
SL-16 R/B               
1 25400U 98043G   26063.46934631  .00000096  00000+0  58924-4 0  9994
2 25400  98.8247  16.7961 0010459  34.7587 325.4274 14.26048412438244
SL-16 R/B               
1 25407U 98045B   26063.48759336 -.00000174  00000+0 -63820-4 0  9992
2 25407  71.0113 192.5126 0006434  15.8870 344.2454 14.16189328426365
ISS (ZARYA)             
1 25544U 98067A   26063.54402654  .00009464  00000+0  18311-3 0  9996
2 25544  51.6315  97.7962 0008198 156.3781 203.7585 15.48441338555534
CZ-4B R/B               
1 25732U 99025C   26063.60401388  .00000086  00000+0  62565-4 0  9992
2 25732  98.6637 108.0059 0037032   1.3021 151.9685 14.18264240387448
OKEAN-O                 
1 25860U 99039A   26063.17689204  .00001003  00000+0  13839-3 0  9995
2 25860  97.9453 123.1241 0001428  70.7706 289.3660 14.80325784433574
SL-16 R/B               
1 25861U 99039B   26063.16195114  .00000848  00000+0  11439-3 0  9997
2 25861  97.9977 122.2666 0013446 275.9477  84.0203 14.81723034436043
