[{"OBJECT_NAME":"COSMOS 2242","OBJECT_ID":"1993-024A","EPOCH":"2026-03-04T02:04:17.638464","MEAN_MOTION":14.96522155,"ECCENTRICITY":0.00155574,"INCLINATION":82.5154,"RA_OF_ASC_NODE":272.0778,"ARG_OF_PERICENTER":328.9179,"MEAN_ANOMALY":31.1121,"EPHEMERIS_TYPE":0,"CLASSIFICATION_TYPE":"U","NORAD_CAT_ID":22626,"ELEMENT_SET_NO":999,"REV_AT_EPOCH":77955,"BSTAR":0.00020393481,"MEAN_MOTION_DOT":2.348e-5,"MEAN_MOTION_DDOT":0},{"OBJECT_NAME":"SL-16 R/B","OBJECT_ID":"1993-059B","EPOCH":"2026-03-04T07:47:14.595072","MEAN_MOTION":14.1723233,"ECCENTRICITY":0.00187795,"INCLINATION":70.9921,"RA_OF_ASC_NODE":22.4393,"ARG_OF_PERICENTER":224.1741,"MEAN_ANOMALY":135.7884,"EPHEMERIS_TYPE":0,"CLASSIFICATION_TYPE":"U","NORAD_CAT_ID":22803,"ELEMENT_SET_NO":999,"REV_AT_EPOCH":67877,"BSTAR":2.4135816e-5,"MEAN_MOTION_DOT":1.0e-8,"MEAN_MOTION_DDOT":0},{"OBJECT_NAME":"ARIANE 40 R/B","OBJECT_ID":"1993-061H","EPOCH":"2026-03-04T04:22:01.309440","MEAN_MOTION":14.32857838,"ECCENTRICITY":0.00096557,"INCLINATION":98.4928,"RA_OF_ASC_NODE":132.1781,"ARG_OF_PERICENTER":303.2942,"MEAN_ANOMALY":56.7316,"EPHEMERIS_TYPE":0,"CLASSIFICATION_TYPE":"U","NORAD_CAT_ID":22830,"ELEMENT_SET_NO":999,"REV_AT_EPOCH":69331,"BSTAR":0.00013004081,"MEAN_MOTION_DOT":3.12e-6,"MEAN_MOTION_DDOT":0},{"OBJECT_NAME":"COSMOS 2278","OBJECT_ID":"1994-023A","EPOCH":"2026-03-04T12:08:04.736832","MEAN_MOTION":14.14376329,"ECCENTRICITY":0.0007692,"INCLINATION":71.0543,"RA_OF_ASC_NODE":185.9417,"ARG_OF_PERICENTER":23.7678,"MEAN_ANOMALY":336.3799,"EPHEMERIS_TYPE":0,"CLASSIFICATION_TYPE":"U","NORAD_CAT_ID":23087,"ELEMENT_SET_NO":999,"REV_AT_EPOCH":64407,"BSTAR":0.00018561294,"MEAN_MOTION_DOT":3.08e-6,"MEAN_MOTION_DDOT":0},{"OBJECT_NAME":"SL-16 R/B","OBJECT_ID":"1994-023B","EPOCH":"2026-03-04T11:36:32.735808","MEAN_MOTION":14.1501338,"ECCENTRICITY":0.00056417,"INCLINATION":70.9987,"RA_OF_ASC_NODE":81.8212,"ARG_OF_PERICENTER":290.7503,"MEAN_ANOMALY":69.3015,"EPHEMERIS_TYPE":0,"CLASSIFICATION_TYPE":"U","NORAD_CAT_ID":23088,"ELEMENT_SET_NO":999,"REV_AT_EPOCH":64535,"BSTAR":-3.5787076e-5,"MEAN_MOTION_DOT":-1.17e-6,"MEAN_MOTION_DDOT":0},{"OBJECT_NAME":"SL-16 R/B","OBJECT_ID":"1994-074B","EPOCH":"2026-03-04T12:42:46.512864","MEAN_MOTION":14.79401252,"ECCENTRICITY":0.00054405,"INCLINATION":97.7116,"RA_OF_ASC_NODE":94.5563,"ARG_OF_PERICENTER":230.3684,"MEAN_ANOMALY":254.1669,"EPHEMERIS_TYPE":0,"CLASSIFICATION_TYPE":"U","NORAD_CAT_ID":23343,"ELEMENT_SET_NO":999,"REV_AT_EPOCH":68648,"BSTAR":9.9054329e-5,"MEAN_MOTION_DOT":6.89e-6,"MEAN_MOTION_DDOT":0},{"OBJECT_NAME":"SL-16 R/B","OBJECT_ID":"1994-077B","EPOCH":"2026-03-04T06:07:43.482432","MEAN_MOTION":14.15562115,"ECCENTRICITY":0.00033945,"INCLINATION":70.9851,"RA_OF_ASC_NODE":3.9204,"ARG_OF_PERICENTER":219.911,"MEAN_ANOMALY":140.1763,"EPHEMERIS_TYPE":0,"CLASSIFICATION_TYPE":"U","NORAD_CAT_ID":23405,"ELEMENT_SET_NO":999,"REV_AT_EPOCH":61546,"BSTAR":-9.3245995e-5,"MEAN_MOTION_DOT":-2.3e-6,"MEAN_MOTION_DDOT":0},{"OBJECT_NAME":"ARIANE 40+ R/B","OBJECT_ID":"1995-021B","EPOCH":"2026-03-04T04:20:20.177376","MEAN_MOTION":14.39768032,"ECCENTRICITY":0.00074018,"INCLINATION":98.4508,"RA_OF_ASC_NODE":134.7378,"ARG_OF_PERICENTER":151.319,"MEAN_ANOMALY":234.2081,"EPHEMERIS_TYPE":0,"CLASSIFICATION_TYPE":"U","NORAD_CAT_ID":23561,"ELEMENT_SET_NO":999,"REV_AT_EPOCH":61845,"BSTAR":0.00015201264,"MEAN_MOTION_DOT":4.33e-6,"MEAN_MOTION_DDOT":0},{"OBJECT_NAME":"SL-16 R/B","OBJECT_ID":"1995-058B","EPOCH":"2026-03-04T11:22:42.210624","MEAN_MOTION":14.15492887,"ECCENTRICITY":0.00109992,"INCLINATION":71.0211,"RA_OF_ASC_NODE":191.2039,"ARG_OF_PERICENTER":135.0151,"MEAN_ANOMALY":225.1865,"EPHEMERIS_TYPE":0,"CLASSIFICATION_TYPE":"U","NORAD_CAT_ID":23705,"ELEMENT_SET_NO":999,"REV_AT_EPOCH":56711,"BSTAR":4.4262795e-5,"MEAN_MOTION_DOT":3.9e-7,"MEAN_MOTION_DDOT":0},{"OBJECT_NAME":"SL-16 R/B","OBJECT_ID":"1996-051B","EPOCH":"2026-03-04T12:00:25.932096","MEAN_MOTION":14.12414119,"ECCENTRICITY":0.00155473,"INCLINATION":70.7597,"RA_OF_ASC_NODE":186.2217,"ARG_OF_PERICENTER":155.7703,"MEAN_ANOMALY":204.4151,"EPHEMERIS_TYPE":0,"CLASSIFICATION_TYPE":"U","NORAD_CAT_ID":24298,"ELEMENT_SET_NO":999,"REV_AT_EPOCH":52091,"BSTAR":8.3515948e-5,"MEAN_MOTION_DOT":1.05e-6,"MEAN_MOTION_DDOT":0},{"OBJECT_NAME":"ORBVIEW 2 (SEASTAR)","OBJECT_ID":"1997-037A","EPOCH":"2026-03-04T09:35:02.594112","MEAN_MOTION":14.3549074,"ECCENTRICITY":0.0003172,"INCLINATION":98.8556,"RA_OF_ASC_NODE":227.5711,"ARG_OF_PERICENTER":82.516,"MEAN_ANOMALY":277.6384,"EPHEMERIS_TYPE":0,"CLASSIFICATION_TYPE":"U","NORAD_CAT_ID":24883,"ELEMENT_SET_NO":999,"REV_AT_EPOCH":50771,"BSTAR":0.00019297216,"MEAN_MOTION_DOT":5.08e-6,"MEAN_MOTION_DDOT":0},{"OBJECT_NAME":"SL-16 R/B","OBJECT_ID":"1998-043G","EPOCH":"2026-03-04T11:15:51.521184","MEAN_MOTION":14.26048412,"ECCENTRICITY":0.00104599,"INCLINATION":98.8247,"RA_OF_ASC_NODE":16.7961,"ARG_OF_PERICENTER":34.7587,"MEAN_ANOMALY":325.4274,"EPHEMERIS_TYPE":0,"CLASSIFICATION_TYPE":"U","NORAD_CAT_ID":25400,"ELEMENT_SET_NO":999,"REV_AT_EPOCH":43824,"BSTAR":5.8923668e-5,"MEAN_MOTION_DOT":9.6e-7,"MEAN_MOTION_DDOT":0},{"OBJECT_NAME":"SL-16 R/B","OBJECT_ID":"1998-045B","EPOCH":"2026-03-04T11:42:08.066304","MEAN_MOTION":14.16189328,"ECCENTRICITY":0.00064343,"INCLINATION":71.0113,"RA_OF_ASC_NODE":192.5126,"ARG_OF_PERICENTER":15.887,"MEAN_ANOMALY":344.2454,"EPHEMERIS_TYPE":0,"CLASSIFICATION_TYPE":"U","NORAD_CAT_ID":25407,"ELEMENT_SET_NO":999,"REV_AT_EPOCH":42636,"BSTAR":-6.3820258e-5,"MEAN_MOTION_DOT":-1.74e-6,"MEAN_MOTION_DDOT":0},{"OBJECT_NAME":"ISS (ZARYA)","OBJECT_ID":"1998-067A","EPOCH":"2026-03-04T13:03:23.893056","MEAN_MOTION":15.48441338,"ECCENTRICITY":0.00081981,"INCLINATION":51.6315,"RA_OF_ASC_NODE":97.7962,"ARG_OF_PERICENTER":156.3781,"MEAN_ANOMALY":203.7585,"EPHEMERIS_TYPE":0,"CLASSIFICATION_TYPE":"U","NORAD_CAT_ID":25544,"ELEMENT_SET_NO":999,"REV_AT_EPOCH":55553,"BSTAR":0.0001831132,"MEAN_MOTION_DOT":9.464e-5,"MEAN_MOTION_DDOT":0},{"OBJECT_NAME":"CZ-4B R/B","OBJECT_ID":"1999-025C","EPOCH":"2026-03-04T14:29:46.799232","MEAN_MOTION":14.1826424,"ECCENTRICITY":0.00370327,"INCLINATION":98.6637,"RA_OF_ASC_NODE":108.0059,"ARG_OF_PERICENTER":1.3021,"MEAN_ANOMALY":151.9685,"EPHEMERIS_TYPE":0,"CLASSIFICATION_TYPE":"U","NORAD_CAT_ID":25732,"ELEMENT_SET_NO":999,"REV_AT_EPOCH":38744,"BSTAR":6.2564843e-5,"MEAN_MOTION_DOT":8.6e-7,"MEAN_MOTION_DDOT":0},{"OBJECT_NAME":"OKEAN-O","OBJECT_ID":"1999-039A","EPOCH":"2026-03-04T04:14:43.472256","MEAN_MOTION":14.80325784,"ECCENTRICITY":0.00014281,"INCLINATION":97.9453,"RA_OF_ASC_NODE":123.1241,"ARG_OF_PERICENTER":70.7706,"MEAN_ANOMALY":289.366,"EPHEMERIS_TYPE":0,"CLASSIFICATION_TYPE":"U","NORAD_CAT_ID":25860,"ELEMENT_SET_NO":999,"REV_AT_EPOCH":43357,"BSTAR":0.00013839078,"MEAN_MOTION_DOT":1.003e-5,"MEAN_MOTION_DDOT":0},{"OBJECT_NAME":"SL-16 R/B","OBJECT_ID":"1999-039B","EPOCH":"2026-03-04T03:53:12.578496","MEAN_MOTION":14.81723034,"ECCENTRICITY":0.00134464,"INCLINATION":97.9977,"RA_OF_ASC_NODE":122.2666,"ARG_OF_PERICENTER":275.9477,"MEAN_ANOMALY":84.0203,"EPHEMERIS_TYPE":0,"CLASSIFICATION_TYPE":"U","NORAD_CAT_ID":25861,"ELEMENT_SET_NO":999,"REV_AT_EPOCH":43604,"BSTAR":0.00011438512,"MEAN_MOTION_DOT":8.48e-6,"MEAN_MOTION_DDOT":0}]
